CTC1_L_00262001-01
1 44301U 22645SW  26037.47804398  .00000000  00000+0  00000-0 0  9991
2 44301  75.0000   0.0000 0000000   0.0000   0.0000 15.38683701    19
CTC1_L_00262001-02
1 44302U 22258IQ  26037.47804398  .00000000  00000+0  00000-0 0  9992
2 44302  75.0000   0.0000 0000000   0.0000  90.0000 15.38683701    19
CTC1_L_00262001-03
1 44303U 23049MS  26037.47804398  .00000000  00000+0  00000-0 0  9992
2 44303  75.0000   0.0000 0000000   0.0000 180.0000 15.38683701    10
CTC1_L_00262001-04
1 44304U 26557NN  26037.47804398  .00000000  00000+0  00000-0 0  9990
2 44304  75.0000   0.0000 0000000   0.0000 270.0000 15.38683701    11
CTC1_L_00262002-01
1 44305U 24590TS  26037.47804398  .00000000  00000+0  00000-0 0  9996
2 44305  75.0000  12.0000 0000000   0.0000  12.0000 15.38683701    19
CTC1_L_00262002-02
1 44306U 26939EU  26037.47804398  .00000000  00000+0  00000-0 0  9996
2 44306  75.0000  12.0000 0000000   0.0000 102.0000 15.38683701    10
CTC1_L_00262002-03
1 44307U 25208AL  26037.47804398  .00000000  00000+0  00000-0 0  9995
2 44307  75.0000  12.0000 0000000   0.0000 192.0000 15.38683701    10
CTC1_L_00262002-04
1 44308U 23571OM  26037.47804398  .00000000  00000+0  00000-0 0  9997
2 44308  75.0000  12.0000 0000000   0.0000 282.0000 15.38683701    11
CTC1_L_00262003-01
1 44309U 25574RZ  26037.47804398  .00000000  00000+0  00000-0 0  9993
2 44309  75.0000  24.0000 0000000   0.0000  24.0000 15.38683701    19
CTC1_L_00262003-02
1 44310U 23528CK  26037.47804398  .00000000  00000+0  00000-0 0  9992
2 44310  75.0000  24.0000 0000000   0.0000 114.0000 15.38683701    11
CTC1_L_00262003-03
1 44311U 25898OP  26037.47804398  .00000000  00000+0  00000-0 0  9995
2 44311  75.0000  24.0000 0000000   0.0000 204.0000 15.38683701    12
CTC1_L_00262003-04
1 44312U 22894LE  26037.47804398  .00000000  00000+0  00000-0 0  9999
2 44312  75.0000  24.0000 0000000   0.0000 294.0000 15.38683701    12
CTC1_L_00262004-01
1 44313U 24508NA  26037.47804398  .00000000  00000+0  00000-0 0  9994
2 44313  75.0000  36.0000 0000000   0.0000  36.0000 15.38683701    10
CTC1_L_00262004-02
1 44314U 26192EH  26037.47804398  .00000000  00000+0  00000-0 0  9996
2 44314  75.0000  36.0000 0000000   0.0000 126.0000 15.38683701    11
CTC1_L_00262004-03
1 44315U 22020MG  26037.47804398  .00000000  00000+0  00000-0 0  9993
2 44315  75.0000  36.0000 0000000   0.0000 216.0000 15.38683701    12
CTC1_L_00262004-04
1 44316U 22301QS  26037.47804398  .00000000  00000+0  00000-0 0  9996
2 44316  75.0000  36.0000 0000000   0.0000 306.0000 15.38683701    13
CTC1_L_00262005-01
1 44317U 25486XV  26037.47804398  .00000000  00000+0  00000-0 0  9994
2 44317  75.0000  48.0000 0000000   0.0000  48.0000 15.38683701    10
CTC1_L_00262005-02
1 44318U 25435TT  26037.47804398  .00000000  00000+0  00000-0 0  9999
2 44318  75.0000  48.0000 0000000   0.0000 138.0000 15.38683701    11
CTC1_L_00262005-03
1 44319U 26564FR  26037.47804398  .00000000  00000+0  00000-0 0  9994
2 44319  75.0000  48.0000 0000000   0.0000 228.0000 15.38683701    12
CTC1_L_00262005-04
1 44320U 24438OW  26037.47804398  .00000000  00000+0  00000-0 0  9994
2 44320  75.0000  48.0000 0000000   0.0000 318.0000 15.38683701    14
CTC1_L_00262006-01
1 44321U 26662KR  26037.47804398  .00000000  00000+0  00000-0 0  9996
2 44321  75.0000  60.0000 0000000   0.0000  60.0000 15.38683701    13
CTC1_L_00262006-02
1 44322U 23759MX  26037.47804398  .00000000  00000+0  00000-0 0  9991
2 44322  75.0000  60.0000 0000000   0.0000 150.0000 15.38683701    14
CTC1_L_00262006-03
1 44323U 23817FB  26037.47804398  .00000000  00000+0  00000-0 0  9997
2 44323  75.0000  60.0000 0000000   0.0000 240.0000 15.38683701    15
CTC1_L_00262006-04
1 44324U 25928GH  26037.47804398  .00000000  00000+0  00000-0 0  9993
2 44324  75.0000  60.0000 0000000   0.0000 330.0000 15.38683701    16
CTC1_L_00262007-01
1 44325U 26577UD  26037.47804398  .00000000  00000+0  00000-0 0  9995
2 44325  75.0000  72.0000 0000000   0.0000  72.0000 15.38683701    13
CTC1_L_00262007-02
1 44326U 24943MH  26037.47804398  .00000000  00000+0  00000-0 0  9991
2 44326  75.0000  72.0000 0000000   0.0000 162.0000 15.38683701    14
CTC1_L_00262007-03
1 44327U 25030WW  26037.47804398  .00000000  00000+0  00000-0 0  9990
2 44327  75.0000  72.0000 0000000   0.0000 252.0000 15.38683701    15
CTC1_L_00262007-04
1 44328U 25495SV  26037.47804398  .00000000  00000+0  00000-0 0  9996
2 44328  75.0000  72.0000 0000000   0.0000 342.0000 15.38683701    16
CTC1_L_00262008-01
1 44329U 25377MN  26037.47804398  .00000000  00000+0  00000-0 0  9996
2 44329  75.0000  84.0000 0000000   0.0000  84.0000 15.38683701    13
CTC1_L_00262008-02
1 44330U 24547YN  26037.47804398  .00000000  00000+0  00000-0 0  9996
2 44330  75.0000  84.0000 0000000   0.0000 174.0000 15.38683701    15
CTC1_L_00262008-03
1 44331U 25585CF  26037.47804398  .00000000  00000+0  00000-0 0  9990
2 44331  75.0000  84.0000 0000000   0.0000 264.0000 15.38683701    16
CTC1_L_00262008-04
1 44332U 24539LA  26037.47804398  .00000000  00000+0  00000-0 0  9999
2 44332  75.0000  84.0000 0000000   0.0000 354.0000 15.38683701    17
CTC1_L_00262009-01
1 44333U 24139GV  26037.47804398  .00000000  00000+0  00000-0 0  9996
2 44333  75.0000  96.0000 0000000   0.0000  96.0000 15.38683701    14
CTC1_L_00262009-02
1 44334U 26303C   26037.47804398  .00000000  00000+0  00000-0 0  9992
2 44334  75.0000  96.0000 0000000   0.0000 186.0000 15.38683701    15
CTC1_L_00262009-03
1 44335U 25783NA  26037.47804398  .00000000  00000+0  00000-0 0  9994
2 44335  75.0000  96.0000 0000000   0.0000 276.0000 15.38683701    16
CTC1_L_00262009-04
1 44336U 25263VK  26037.47804398  .00000000  00000+0  00000-0 0  9998
2 44336  75.0000  96.0000 0000000   0.0000   6.0000 15.38683701    18
CTC1_L_00262010-01
1 44337U 26991Y   26037.47804398  .00000000  00000+0  00000-0 0  9998
2 44337  75.0000 108.0000 0000000   0.0000 108.0000 15.38683701    16
CTC1_L_00262010-02
1 44338U 22707OT  26037.47804398  .00000000  00000+0  00000-0 0  9990
2 44338  75.0000 108.0000 0000000   0.0000 198.0000 15.38683701    16
CTC1_L_00262010-03
1 44339U 23579OV  26037.47804398  .00000000  00000+0  00000-0 0  9999
2 44339  75.0000 108.0000 0000000   0.0000 288.0000 15.38683701    17
CTC1_L_00262010-04
1 44340U 22108XD  26037.47804398  .00000000  00000+0  00000-0 0  9998
2 44340  75.0000 108.0000 0000000   0.0000  18.0000 15.38683701    10
CTC1_L_00262011-01
1 44341U 22758RJ  26037.47804398  .00000000  00000+0  00000-0 0  9990
2 44341  75.0000 120.0000 0000000   0.0000 120.0000 15.38683701    19
CTC1_L_00262011-02
1 44342U 23956AP  26037.47804398  .00000000  00000+0  00000-0 0  9992
2 44342  75.0000 120.0000 0000000   0.0000 210.0000 15.38683701    10
CTC1_L_00262011-03
1 44343U 23691AJ  26037.47804398  .00000000  00000+0  00000-0 0  9999
2 44343  75.0000 120.0000 0000000   0.0000 300.0000 15.38683701    11
CTC1_L_00262011-04
1 44344U 23645GJ  26037.47804398  .00000000  00000+0  00000-0 0  9999
2 44344  75.0000 120.0000 0000000   0.0000  30.0000 15.38683701    12
CTC1_L_00262012-01
1 44345U 25625HP  26037.47804398  .00000000  00000+0  00000-0 0  9990
2 44345  75.0000 132.0000 0000000   0.0000 132.0000 15.38683701    19
CTC1_L_00262012-02
1 44346U 22163WF  26037.47804398  .00000000  00000+0  00000-0 0  9995
2 44346  75.0000 132.0000 0000000   0.0000 222.0000 15.38683701    10
CTC1_L_00262012-03
1 44347U 23977XR  26037.47804398  .00000000  00000+0  00000-0 0  9990
2 44347  75.0000 132.0000 0000000   0.0000 312.0000 15.38683701    11
CTC1_L_00262012-04
1 44348U 23547DH  26037.47804398  .00000000  00000+0  00000-0 0  9994
2 44348  75.0000 132.0000 0000000   0.0000  42.0000 15.38683701    12
CTC1_L_00262013-01
1 44349U 24390BK  26037.47804398  .00000000  00000+0  00000-0 0  9992
2 44349  75.0000 144.0000 0000000   0.0000 144.0000 15.38683701    19
CTC1_L_00262013-02
1 44350U 24839LP  26037.47804398  .00000000  00000+0  00000-0 0  9992
2 44350  75.0000 144.0000 0000000   0.0000 234.0000 15.38683701    11
CTC1_L_00262013-03
1 44351U 25179IA  26037.47804398  .00000000  00000+0  00000-0 0  9991
2 44351  75.0000 144.0000 0000000   0.0000 324.0000 15.38683701    12
CTC1_L_00262013-04
1 44352U 23494ZC  26037.47804398  .00000000  00000+0  00000-0 0  9990
2 44352  75.0000 144.0000 0000000   0.0000  54.0000 15.38683701    13
CTC1_L_00262014-01
1 44353U 22879JL  26037.47804398  .00000000  00000+0  00000-0 0  9997
2 44353  75.0000 156.0000 0000000   0.0000 156.0000 15.38683701    10
CTC1_L_00262014-02
1 44354U 22239PM  26037.47804398  .00000000  00000+0  00000-0 0  9998
2 44354  75.0000 156.0000 0000000   0.0000 246.0000 15.38683701    11
CTC1_L_00262014-03
1 44355U 26100DG  26037.47804398  .00000000  00000+0  00000-0 0  9990
2 44355  75.0000 156.0000 0000000   0.0000 336.0000 15.38683701    12
CTC1_L_00262014-04
1 44356U 25527YD  26037.47804398  .00000000  00000+0  00000-0 0  9993
2 44356  75.0000 156.0000 0000000   0.0000  66.0000 15.38683701    13
CTC1_L_00262015-01
1 44357U 22228HR  26037.47804398  .00000000  00000+0  00000-0 0  9999
2 44357  75.0000 168.0000 0000000   0.0000 168.0000 15.38683701    10
CTC1_L_00262015-02
1 44358U 23544SP  26037.47804398  .00000000  00000+0  00000-0 0  9992
2 44358  75.0000 168.0000 0000000   0.0000 258.0000 15.38683701    11
CTC1_L_00262015-03
1 44359U 23462AO  26037.47804398  .00000000  00000+0  00000-0 0  9992
2 44359  75.0000 168.0000 0000000   0.0000 348.0000 15.38683701    12
CTC1_L_00262015-04
1 44360U 26411PV  26037.47804398  .00000000  00000+0  00000-0 0  9991
2 44360  75.0000 168.0000 0000000   0.0000  78.0000 15.38683701    14
CTC1_L_00262016-01
1 44361U 26842LU  26037.47804398  .00000000  00000+0  00000-0 0  9990
2 44361  75.0000 180.0000 0000000   0.0000 180.0000 15.38683701    13
CTC1_L_00262016-02
1 44362U 23107OM  26037.47804398  .00000000  00000+0  00000-0 0  9992
2 44362  75.0000 180.0000 0000000   0.0000 270.0000 15.38683701    14
